STARLINK-5749           
1 55569U 23020A   26068.21489580  .00002103  00000+0  17075-3 0  9994
2 55569  43.0028   7.5869 0000657 252.1909 107.8862 15.02529474169917
QPS-SAR-8 (AMATERU-IV)  
1 60542U 24149CC  26068.70418071  .00008268  00000+0  61811-3 0  9990
2 60542  97.6699 148.7511 0003873  93.1500 267.0168 15.03026697 85328
